NOAA 1 [-]              
1 04793U 70106A   22221.54602309 -.00000039  00000+0  30823-4 0  9997
2 04793 101.5535 284.0110 0031435 218.2072 250.1856 12.54006641364738
NOAA 2 (ITOS-D) [-]     
1 06235U 72082A   22220.90537459 -.00000010  00000+0  22603-3 0  9992
2 06235 101.9561 203.4714 0004033 341.3923  47.0616 12.53150116278542
NOAA 3 [-]              
1 06920U 73086A   22220.88513083 -.00000043  00000+0  24747-4 0  9990
2 06920 102.2110 202.5807 0006191 191.2772 196.6637 12.40347372207297
NOAA 4 [-]              
1 07529U 74089A   22220.88426242 -.00000023  00000+0  14173-3 0  9999
2 07529 101.9163 200.6808 0009209   6.5099  21.4824 12.53159047183111
NOAA 5 [-]              
1 09057U 76077A   22220.71506352 -.00000018  00000+0  20771-3 0  9994
2 09057 102.1013 188.1536 0010357  43.6471 129.8125 12.37772517 80204
TIROS N [-]             
1 11060U 78096A   22221.11228265  .00000081  00000+0  59940-4 0  9993
2 11060  98.6319 273.4505 0010420 358.4535   1.6606 14.18403465479311
NOAA 6 [-]              
1 11416U 79057A   22220.46310911  .00000168  00000+0  76326-4 0  9996
2 11416  98.6641 231.3985 0011517 103.8595 256.3871 14.33781405248974
NOAA 7 [-]              
1 12553U 81059A   22220.89387483  .00000029  00000+0  36842-4 0  9994
2 12553  98.9956 265.9521 0010933 331.5069  28.5506 14.17339295125229
NOAA 8 [-]              
1 13923U 83022A   22220.59727470  .00000081  00000+0  49821-4 0  9998
2 13923  98.6893 210.9434 0016147  59.2504 301.0265 14.28821657 49857
NOAA 9 [-]              
1 15427U 84123A   22220.93462639  .00000054  00000+0  50576-4 0  9992
2 15427  99.0490 194.1524 0015280  20.5930 350.2529 14.16214123944045
NOAA 10 [-]             
1 16969U 86073A   22220.73701157  .00000052  00000+0  38224-4 0  9993
2 16969  98.5707 205.9358 0012620 154.2732  19.0540 14.28212130868292
NOAA 11 [-]             
1 19531U 88089A   22220.44524324  .00000026  00000+0  34348-4 0  9991
2 19531  98.4269 206.6776 0011843  34.0219 326.1713 14.15317037748171
NOAA 12 [-]             
1 21263U 91032A   22220.90650610  .00000042  00000+0  35545-4 0  9995
2 21263  98.5156 219.2614 0013554 181.0047 179.1109 14.26003468624200
NOAA 13 [-]             
1 22739U 93050A   22221.20648159  .00000051  00000+0  49317-4 0  9997
2 22739  98.5081 198.3856 0009227 185.3561 174.7515 14.12853502494744
NOAA 14 [-]             
1 23455U 94089A   22221.54752347  .00000024  00000+0  34057-4 0  9993
2 23455  98.4460 245.3752 0009744 164.9377 195.2089 14.14204141424456
NOAA 15 [B]             
1 25338U 98030A   22221.60020711  .00000131  00000+0  73104-4 0  9990
2 25338  98.6417 250.4337 0011202 138.3615 221.8420 14.26159156260844
NOAA 16 [-]             
1 26536U 00055A   22220.78511129  .00000006  00000+0  25698-4 0  9993
2 26536  98.6329 277.8724 0010845  22.5604 337.6044 14.13337324424744
NOAA 17 [-]             
1 27453U 02032A   22220.87881135  .00000038  00000+0  35039-4 0  9991
2 27453  98.6735 165.5339 0012836 116.6932 243.5563 14.25132927 46320
NOAA 18 [B]             
1 28654U 05018A   22221.60687700  .00000119  00000+0  88053-4 0  9990
2 28654  98.9465 291.9948 0014438 177.1964 182.9291 14.12762190887575
NOAA 19 [+]             
1 33591U 09005A   22221.61419599  .00000134  00000+0  97615-4 0  9997
2 33591  99.1449 256.8592 0014534  42.3702 317.8588 14.12596681695958
SUOMI NPP [+]           
1 37849U 11061A   22221.62574029  .00000017  00000+0  28867-4 0  9996
2 37849  98.7333 159.4443 0001231  88.1244 323.0845 14.19537112558737
NOAA 20 [+]             
1 43013U 17073A   22221.57988859  .00000023  00000+0  31411-4 0  9995
2 43013  98.7172 159.3078 0000737  78.3032 281.8227 14.19564759244764
